start=new Date('2023-03-21T00:00:00.000Z').valueOf();
sats=[{"TLE_LINE2":"2 47597  53.0517 232.2215 0001171  63.1097 297.0011 15.06417916116983","PERIOD":"95.591","REF_FRAME":"TEME","RA_OF_ASC_NODE":"232.2215","APOAPSIS":"547.970","ECCENTRICITY":"0.00011710","INCLINATION":"53.0517","OBJECT_NAME":"STARLINK-2002","PERIAPSIS":"546.348","FILE":"3866115","DECAY_DATE":null,"COUNTRY_CODE":"US","OBJECT_ID":"2021-009BB","SEMIMAJOR_AXIS":"6925.294","MEAN_ANOMALY":"297.0011","EPOCH":"2023-03-20T17:21:42.175584","MEAN_ELEMENT_THEORY":"SGP4","MEAN_MOTION_DOT":"0.00022096","SITE":"AFETR","RCS_SIZE":"LARGE","NORAD_CAT_ID":"47597","MEAN_MOTION":"15.06417916","TLE_LINE1":"1 47597U 21009BB  23079.72340481  .00022096  00000-0  14969-2 0  9994","EPHEMERIS_TYPE":"0","ARG_OF_PERICENTER":"63.1097","LAUNCH_DATE":"2021-02-04","OBJECT_TYPE":"PAYLOAD","CENTER_NAME":"EARTH","GP_ID":"228546260","REV_AT_EPOCH":"11698","TIME_SYSTEM":"UTC","ELEMENT_SET_NO":"999","MEAN_MOTION_DDOT":"0.0000000000000","BSTAR":"0.00149690000000","CLASSIFICATION_TYPE":"U"},{"OBJECT_ID":"2021-009BC","SEMIMAJOR_AXIS":"6925.222","EPOCH":"2023-03-20T14:25:10.791840","MEAN_ANOMALY":"281.6317","MEAN_ELEMENT_THEORY":"SGP4","DECAY_DATE":null,"COUNTRY_CODE":"US","OBJECT_NAME":"STARLINK-2003","PERIAPSIS":"546.228","FILE":"3866115","PERIOD":"95.590","TLE_LINE2":"2 47598  53.0532 202.7721 0001240  78.4811 281.6317 15.06441384117395","APOAPSIS":"547.945","ECCENTRICITY":"0.00012400","RA_OF_ASC_NODE":"202.7721","REF_FRAME":"TEME","INCLINATION":"53.0532","REV_AT_EPOCH":"11739","GP_ID":"228546511","TIME_SYSTEM":"UTC","BSTAR":"0.00072676000000","MEAN_MOTION_DDOT":"0.0000000000000","CLASSIFICATION_TYPE":"U","ELEMENT_SET_NO":"999","CENTER_NAME":"EARTH","TLE_LINE1":"1 47598U 21009BC  23079.60081935  .00010572  00000-0  72676-3 0  9994","MEAN_MOTION":"15.06441384","EPHEMERIS_TYPE":"0","OBJECT_TYPE":"PAYLOAD","ARG_OF_PERICENTER":"78.4811","LAUNCH_DATE":"2021-02-04","SITE":"AFETR","MEAN_MOTION_DOT":"0.00010572","RCS_SIZE":"LARGE","NORAD_CAT_ID":"47598"},{"INCLINATION":"53.0534","REF_FRAME":"TEME","APOAPSIS":"548.113","ECCENTRICITY":"0.00015260","RA_OF_ASC_NODE":"193.1119","PERIOD":"95.589","TLE_LINE2":"2 47599  53.0534 193.1119 0001526  65.4237 294.6910 15.06451287117517","FILE":"3865912","PERIAPSIS":"546.000","OBJECT_NAME":"STARLINK-2004","COUNTRY_CODE":"US","DECAY_DATE":null,"MEAN_ELEMENT_THEORY":"SGP4","EPOCH":"2023-03-20T12:35:04.213248","MEAN_ANOMALY":"294.6910","SEMIMAJOR_AXIS":"6925.191","OBJECT_ID":"2021-009BD","NORAD_CAT_ID":"47599","RCS_SIZE":"LARGE","MEAN_MOTION_DOT":"0.00033819","SITE":"AFETR","LAUNCH_DATE":"2021-02-04","ARG_OF_PERICENTER":"65.4237","OBJECT_TYPE":"PAYLOAD","EPHEMERIS_TYPE":"0","MEAN_MOTION":"15.06451287","TLE_LINE1":"1 47599U 21009BD  23079.52435432  .00033819  00000-0  22753-2 0  9990","CENTER_NAME":"EARTH","MEAN_MOTION_DDOT":"0.0000000000000","CLASSIFICATION_TYPE":"U","ELEMENT_SET_NO":"999","BSTAR":"0.00227530000000","TIME_SYSTEM":"UTC","GP_ID":"228515958","REV_AT_EPOCH":"11751"},{"ELEMENT_SET_NO":"999","MEAN_MOTION_DDOT":"0.0000000000000","CLASSIFICATION_TYPE":"U","BSTAR":"0.00187560000000","REV_AT_EPOCH":"11753","GP_ID":"228546010","TIME_SYSTEM":"UTC","CENTER_NAME":"EARTH","OBJECT_TYPE":"PAYLOAD","LAUNCH_DATE":"2021-02-04","ARG_OF_PERICENTER":"78.3906","TLE_LINE1":"1 47600U 21009BE  23079.61649814  .00027807  00000-0  18756-2 0  9992","MEAN_MOTION":"15.06454101","EPHEMERIS_TYPE":"0","RCS_SIZE":"LARGE","NORAD_CAT_ID":"47600","SITE":"AFETR","MEAN_MOTION_DOT":"0.00027807","MEAN_ANOMALY":"281.7163","EPOCH":"2023-03-20T14:47:45.439296","MEAN_ELEMENT_THEORY":"SGP4","OBJECT_ID":"2021-009BE","SEMIMAJOR_AXIS":"6925.183","COUNTRY_CODE":"US","DECAY_DATE":null,"PERIAPSIS":"546.549","FILE":"3866115","OBJECT_NAME":"STARLINK-2005","APOAPSIS":"547.546","RA_OF_ASC_NODE":"192.6727","ECCENTRICITY":"0.00007200","REF_FRAME":"TEME","INCLINATION":"53.0543","PERIOD":"95.589","TLE_LINE2":"2 47600  53.0543 192.6727 0000720  78.3906 281.7163 15.06454101117537"},{"TLE_LINE2":"2 47601  53.0549 192.1986 0001045  70.0482 290.0620 15.06483874117546","PERIOD":"95.587","INCLINATION":"53.0549","REF_FRAME":"TEME","RA_OF_ASC_NODE":"192.1986","APOAPSIS":"547.680","ECCENTRICITY":"0.00010450","OBJECT_NAME":"STARLINK-2006","FILE":"3866115","PERIAPSIS":"546.233","DECAY_DATE":null,"COUNTRY_CODE":"US","SEMIMAJOR_AXIS":"6925.092","OBJECT_ID":"2021-009BF","MEAN_ELEMENT_THEORY":"SGP4","MEAN_ANOMALY":"290.0620","EPOCH":"2023-03-20T17:26:58.561152","MEAN_MOTION_DOT":"0.00037743","SITE":"AFETR","RCS_SIZE":"LARGE","NORAD_CAT_ID":"47601","EPHEMERIS_TYPE":"0","MEAN_MOTION":"15.06483874","TLE_LINE1":"1 47601U 21009BF  23079.72706668  .00037743  00000-0  25335-2 0  9997","LAUNCH_DATE":"2021-02-04","ARG_OF_PERICENTER":"70.0482","OBJECT_TYPE":"PAYLOAD","CENTER_NAME":"EARTH","TIME_SYSTEM":"UTC","REV_AT_EPOCH":"11754","GP_ID":"228545760","MEAN_MOTION_DDOT":"0.0000000000000","ELEMENT_SET_NO":"999","CLASSIFICATION_TYPE":"U","BSTAR":"0.00253350000000"},{"TLE_LINE2":"2 47602  53.0528 202.7048 0001083  65.8282 294.2820 15.06470524117381","PERIOD":"95.588","REF_FRAME":"TEME","APOAPSIS":"547.747","ECCENTRICITY":"0.00010830","RA_OF_ASC_NODE":"202.7048","INCLINATION":"53.0528","OBJECT_NAME":"STARLINK-2007","PERIAPSIS":"546.247","FILE":"3866115","DECAY_DATE":null,"COUNTRY_CODE":"US","OBJECT_ID":"2021-009BG","SEMIMAJOR_AXIS":"6925.132","MEAN_ANOMALY":"294.2820","EPOCH":"2023-03-20T14:46:24.804768","MEAN_ELEMENT_THEORY":"SGP4","MEAN_MOTION_DOT":"0.00033622","SITE":"AFETR","NORAD_CAT_ID":"47602","RCS_SIZE":"LARGE","MEAN_MOTION":"15.06470524","TLE_LINE1":"1 47602U 21009BG  23079.61556487  .00033622  00000-0  22610-2 0  9993","EPHEMERIS_TYPE":"0","ARG_OF_PERICENTER":"65.8282","LAUNCH_DATE":"2021-02-04","OBJECT_TYPE":"PAYLOAD","CENTER_NAME":"EARTH","GP_ID":"228547012","REV_AT_EPOCH":"11738","TIME_SYSTEM":"UTC","CLASSIFICATION_TYPE":"U","MEAN_MOTION_DDOT":"0.0000000000000","ELEMENT_SET_NO":"999","BSTAR":"0.00226100000000"},{"CENTER_NAME":"EARTH","TIME_SYSTEM":"UTC","REV_AT_EPOCH":"11697","GP_ID":"228546757","MEAN_MOTION_DDOT":"0.0000000000000","CLASSIFICATION_TYPE":"U","ELEMENT_SET_NO":"999","BSTAR":"0.00152330000000","MEAN_MOTION_DOT":"0.00022510","SITE":"AFETR","RCS_SIZE":"LARGE","NORAD_CAT_ID":"47603","EPHEMERIS_TYPE":"0","MEAN_MOTION":"15.06447268","TLE_LINE1":"1 47603U 21009BH  23079.69388905  .00022510  00000-0  15233-2 0  9997","LAUNCH_DATE":"2021-02-04","ARG_OF_PERICENTER":"74.3932","OBJECT_TYPE":"PAYLOAD","DECAY_DATE":null,"COUNTRY_CODE":"US","SEMIMAJOR_AXIS":"6925.204","OBJECT_ID":"2021-009BH","MEAN_ELEMENT_THEORY":"SGP4","EPOCH":"2023-03-20T16:39:12.013920","MEAN_ANOMALY":"285.7187","TLE_LINE2":"2 47603  53.0526 232.3535 0001179  74.3932 285.7187 15.06447268116977","PERIOD":"95.589","INCLINATION":"53.0526","REF_FRAME":"TEME","APOAPSIS":"547.885","RA_OF_ASC_NODE":"232.3535","ECCENTRICITY":"0.00011790","OBJECT_NAME":"STARLINK-2008","FILE":"3866115","PERIAPSIS":"546.252"},{"SITE":"AFETR","MEAN_MOTION_DOT":"0.00031244","RCS_SIZE":"LARGE","NORAD_CAT_ID":"47604","EPHEMERIS_TYPE":"0","TLE_LINE1":"1 47604U 21009BJ  23079.62294553  .00031244  00000-0  21049-2 0  9992","MEAN_MOTION":"15.06439901","OBJECT_TYPE":"PAYLOAD","ARG_OF_PERICENTER":"69.6214","LAUNCH_DATE":"2021-02-04","CENTER_NAME":"EARTH","TIME_SYSTEM":"UTC","GP_ID":"228545510","REV_AT_EPOCH":"11739","CLASSIFICATION_TYPE":"U","MEAN_MOTION_DDOT":"0.0000000000000","ELEMENT_SET_NO":"999","BSTAR":"0.00210490000000","PERIOD":"95.590","TLE_LINE2":"2 47604  53.0535 202.6718 0001280  69.6214 290.4912 15.06439901117395","INCLINATION":"53.0535","RA_OF_ASC_NODE":"202.6718","APOAPSIS":"547.978","ECCENTRICITY":"0.00012800","REF_FRAME":"TEME","OBJECT_NAME":"STARLINK-2021","FILE":"3866115","PERIAPSIS":"546.205","DECAY_DATE":null,"COUNTRY_CODE":"US","SEMIMAJOR_AXIS":"6925.226","OBJECT_ID":"2021-009BJ","MEAN_ELEMENT_THEORY":"SGP4","EPOCH":"2023-03-20T14:57:02.493792","MEAN_ANOMALY":"290.4912"},{"CENTER_NAME":"EARTH","GP_ID":"228546261","REV_AT_EPOCH":"11739","TIME_SYSTEM":"UTC","MEAN_MOTION_DDOT":"0.0000000000000","CLASSIFICATION_TYPE":"U","ELEMENT_SET_NO":"999","BSTAR":"0.00193540000000","MEAN_MOTION_DOT":"0.00028727","SITE":"AFETR","NORAD_CAT_ID":"47606","RCS_SIZE":"LARGE","MEAN_MOTION":"15.06480162","TLE_LINE1":"1 47606U 21009BL  23079.62660805  .00028727  00000-0  19354-2 0  9999","EPHEMERIS_TYPE":"0","ARG_OF_PERICENTER":"87.6665","LAUNCH_DATE":"2021-02-04","OBJECT_TYPE":"PAYLOAD","DECAY_DATE":null,"COUNTRY_CODE":"US","OBJECT_ID":"2021-009BL","SEMIMAJOR_AXIS":"6925.103","EPOCH":"2023-03-20T15:02:18.935520","MEAN_ANOMALY":"272.4473","MEAN_ELEMENT_THEORY":"SGP4","TLE_LINE2":"2 47606  53.0547 202.6562 0001300  87.6665 272.4473 15.06480162117397","PERIOD":"95.587","REF_FRAME":"TEME","APOAPSIS":"547.868","ECCENTRICITY":"0.00013000","RA_OF_ASC_NODE":"202.6562","INCLINATION":"53.0547","OBJECT_NAME":"STARLINK-2024","PERIAPSIS":"546.068","FILE":"3866115"},{"CLASSIFICATION_TYPE":"U","MEAN_MOTION_DDOT":"0.0000000000000","BSTAR":"0.00221430000000","ELEMENT_SET_NO":"999","TIME_SYSTEM":"UTC","GP_ID":"228546512","REV_AT_EPOCH":"11738","CENTER_NAME":"EARTH","OBJECT_TYPE":"PAYLOAD","LAUNCH_DATE":"2021-02-04","ARG_OF_PERICENTER":"94.2134","EPHEMERIS_TYPE":"0","TLE_LINE1":"1 47607U 21009BM  23079.60451264  .00032908  00000-0  22143-2 0  9991","MEAN_MOTION":"15.06459763","NORAD_CAT_ID":"47607","RCS_SIZE":"LARGE","SITE":"AFETR","MEAN_MOTION_DOT":"0.00032908","MEAN_ELEMENT_THEORY":"SGP4","EPOCH":"2023-03-20T14:30:29.892096","MEAN_ANOMALY":"265.8999","SEMIMAJOR_AXIS":"6925.165","OBJECT_ID":"2021-009BM","COUNTRY_CODE":"US","DECAY_DATE":null,"FILE":"3866115","PERIAPSIS":"546.158","OBJECT_NAME":"STARLINK-2025","INCLINATION":"53.0541","RA_OF_ASC_NODE":"202.7704","APOAPSIS":"547.903","ECCENTRICITY":"0.00012600","REF_FRAME":"TEME","PERIOD":"95.588","TLE_LINE2":"2 47607  53.0541 202.7704 0001260  94.2134 265.8999 15.06459763117382"}];
